DELTA 1 R/B             
1 20323U 89089B   25308.63110047  .00000394  00000+0  10612-3 0  9992
2 20323  97.0792 170.9019 0069769 156.6078 203.8320 14.50522860877602
ARIANE 40 R/B           
1 20443U 90005H   25308.65563626  .00000357  00000+0  12753-3 0  9999
2 20443  98.3297   7.9005 0009475 215.2152 144.8411 14.39752246874811
DELTA 2 R/B(1)          
1 20453U 90008B   25308.58627521  .00033719  00000+0  59857-3 0  9994
2 20453  35.6083 266.2483 0118510 191.7269 168.0693 15.41679548906731
COSMOS 2058             
1 20465U 90010A   25308.79300943  .00003272  00000+0  19925-3 0  9992
2 20465  82.4678 170.3578 0011522  46.0232 314.1946 15.10034522923389
SL-14 R/B               
1 20466U 90010B   25308.63494455  .00000543  00000+0  63158-4 0  9994
2 20466  82.5051  24.8274 0019658 356.5457   3.5619 14.83417436909948
SL-14 R/B               
1 20511U 90018B   25308.80256189  .00000460  00000+0  54917-4 0  9993
2 20511  82.5214 339.8272 0017441 139.1648 221.0877 14.81991625904080
HST                     
1 20580U 90037B   25308.70621628  .00007044  00000+0  24780-3 0  9992
2 20580  28.4662 171.2249 0001806 160.2000 199.8665 15.27310163754172
SL-16 R/B               
1 20625U 90046B   25308.71319616 -.00000122  00000+0 -38197-4 0  9994
2 20625  70.9990 200.3792 0012476 142.1529 218.0474 14.14992252830712
COSMOS 2084             
1 20663U 90055A   25308.69157606  .00003910  00000+0  28664-3 0  9995
2 20663  62.7922  41.6031 0038049 170.1316 190.0540 15.04667124917502
SL-6 R/B(2)             
1 20666U 90055D   25308.77631470  .00002414  00000+0  19395-3 0  9992
2 20666  62.7836 318.3829 0010669 274.9483  85.0398 15.02786894919414
SL-8 R/B                
1 20775U 90078B   25308.85989403  .00013127  00000+0  40485-3 0  9996
2 20775  82.9084   3.1514 0382689  72.5072 291.7581 14.83929448790750
SL-8 R/B                
1 21088U 91006B   25308.82563124  .00000126  00000+0  11099-3 0  9995
2 21088  82.9401 262.9161 0023280  28.2590 350.0034 13.77481538746888
